<?xml version="1.0" encoding="UTF-8"?>
<ndm xmlns:xsi="http://www.w3.org/2001/XMLSchema-instance" xsi:noNamespaceSchemaLocation="https://sanaregistry.org/r/ndmxml_unqualified/ndmxml-2.0.0-master-2.0.xsd">
<omm id="CCSDS_OMM_VERS" version="2.0">
<header><CREATION_DATE/><ORIGINATOR/></header><body><segment><metadata><OBJECT_NAME>KUIPER-00027</OBJECT_NAME><OBJECT_ID>2025-088S</OBJECT_ID><CENTER_NAME>EARTH</CENTER_NAME><REF_FRAME>TEME</REF_FRAME><TIME_SYSTEM>UTC</TIME_SYSTEM><MEAN_ELEMENT_THEORY>SGP4</MEAN_ELEMENT_THEORY></metadata><data><meanElements><EPOCH>2025-10-18T21:36:09.920448</EPOCH><MEAN_MOTION>14.79491333</MEAN_MOTION><ECCENTRICITY>.00051311</ECCENTRICITY><INCLINATION>51.9024</INCLINATION><RA_OF_ASC_NODE>2.4070</RA_OF_ASC_NODE><ARG_OF_PERICENTER>56.3454</ARG_OF_PERICENTER><MEAN_ANOMALY>303.7997</MEAN_ANOMALY></meanElements><tleParameters><EPHEMERIS_TYPE>0</EPHEMERIS_TYPE><CLASSIFICATION_TYPE>U</CLASSIFICATION_TYPE><NORAD_CAT_ID>63740</NORAD_CAT_ID><ELEMENT_SET_NO>999</ELEMENT_SET_NO><REV_AT_EPOCH>2662</REV_AT_EPOCH><BSTAR>.12282877E-2</BSTAR><MEAN_MOTION_DOT>.9059E-4</MEAN_MOTION_DOT><MEAN_MOTION_DDOT>0</MEAN_MOTION_DDOT></tleParameters></data></segment></body></omm>
<omm id="CCSDS_OMM_VERS" version="2.0">
<header><CREATION_DATE/><ORIGINATOR/></header><body><segment><metadata><OBJECT_NAME>KUIPER-00028</OBJECT_NAME><OBJECT_ID>2025-088T</OBJECT_ID><CENTER_NAME>EARTH</CENTER_NAME><REF_FRAME>TEME</REF_FRAME><TIME_SYSTEM>UTC</TIME_SYSTEM><MEAN_ELEMENT_THEORY>SGP4</MEAN_ELEMENT_THEORY></metadata><data><meanElements><EPOCH>2025-10-18T21:55:25.671648</EPOCH><MEAN_MOTION>14.79298937</MEAN_MOTION><ECCENTRICITY>.00046628</ECCENTRICITY><INCLINATION>51.9016</INCLINATION><RA_OF_ASC_NODE>0.2903</RA_OF_ASC_NODE><ARG_OF_PERICENTER>79.2840</ARG_OF_PERICENTER><MEAN_ANOMALY>280.8647</MEAN_ANOMALY></meanElements><tleParameters><EPHEMERIS_TYPE>0</EPHEMERIS_TYPE><CLASSIFICATION_TYPE>U</CLASSIFICATION_TYPE><NORAD_CAT_ID>63741</NORAD_CAT_ID><ELEMENT_SET_NO>999</ELEMENT_SET_NO><REV_AT_EPOCH>2706</REV_AT_EPOCH><BSTAR>.59018973E-3</BSTAR><MEAN_MOTION_DOT>.4214E-4</MEAN_MOTION_DOT><MEAN_MOTION_DDOT>0</MEAN_MOTION_DDOT></tleParameters></data></segment></body></omm>
<omm id="CCSDS_OMM_VERS" version="2.0">
<header><CREATION_DATE/><ORIGINATOR/></header><body><segment><metadata><OBJECT_NAME>KUIPER-00029</OBJECT_NAME><OBJECT_ID>2025-088U</OBJECT_ID><CENTER_NAME>EARTH</CENTER_NAME><REF_FRAME>TEME</REF_FRAME><TIME_SYSTEM>UTC</TIME_SYSTEM><MEAN_ELEMENT_THEORY>SGP4</MEAN_ELEMENT_THEORY></metadata><data><meanElements><EPOCH>2025-10-18T21:26:37.395168</EPOCH><MEAN_MOTION>14.79978582</MEAN_MOTION><ECCENTRICITY>.00088193</ECCENTRICITY><INCLINATION>51.9031</INCLINATION><RA_OF_ASC_NODE>358.3650</RA_OF_ASC_NODE><ARG_OF_PERICENTER>26.8268</ARG_OF_PERICENTER><MEAN_ANOMALY>333.3148</MEAN_ANOMALY></meanElements><tleParameters><EPHEMERIS_TYPE>0</EPHEMERIS_TYPE><CLASSIFICATION_TYPE>U</CLASSIFICATION_TYPE><NORAD_CAT_ID>63742</NORAD_CAT_ID><ELEMENT_SET_NO>999</ELEMENT_SET_NO><REV_AT_EPOCH>2661</REV_AT_EPOCH><BSTAR>.99055796E-3</BSTAR><MEAN_MOTION_DOT>.7349E-4</MEAN_MOTION_DOT><MEAN_MOTION_DDOT>0</MEAN_MOTION_DDOT></tleParameters></data></segment></body></omm>
<omm id="CCSDS_OMM_VERS" version="2.0">
<header><CREATION_DATE/><ORIGINATOR/></header><body><segment><metadata><OBJECT_NAME>KUIPER-00030</OBJECT_NAME><OBJECT_ID>2025-088V</OBJECT_ID><CENTER_NAME>EARTH</CENTER_NAME><REF_FRAME>TEME</REF_FRAME><TIME_SYSTEM>UTC</TIME_SYSTEM><MEAN_ELEMENT_THEORY>SGP4</MEAN_ELEMENT_THEORY></metadata><data><meanElements><EPOCH>2025-10-18T23:11:52.787616</EPOCH><MEAN_MOTION>14.79963560</MEAN_MOTION><ECCENTRICITY>.00143093</ECCENTRICITY><INCLINATION>51.9021</INCLINATION><RA_OF_ASC_NODE>17.2354</RA_OF_ASC_NODE><ARG_OF_PERICENTER>325.7506</ARG_OF_PERICENTER><MEAN_ANOMALY>34.2533</MEAN_ANOMALY></meanElements><tleParameters><EPHEMERIS_TYPE>0</EPHEMERIS_TYPE><CLASSIFICATION_TYPE>U</CLASSIFICATION_TYPE><NORAD_CAT_ID>63743</NORAD_CAT_ID><ELEMENT_SET_NO>999</ELEMENT_SET_NO><REV_AT_EPOCH>2664</REV_AT_EPOCH><BSTAR>.11667797E-2</BSTAR><MEAN_MOTION_DOT>.8703E-4</MEAN_MOTION_DOT><MEAN_MOTION_DDOT>0</MEAN_MOTION_DDOT></tleParameters></data></segment></body></omm>
<omm id="CCSDS_OMM_VERS" version="2.0">
<header><CREATION_DATE/><ORIGINATOR/></header><body><segment><metadata><OBJECT_NAME>KUIPER-00031</OBJECT_NAME><OBJECT_ID>2025-088W</OBJECT_ID><CENTER_NAME>EARTH</CENTER_NAME><REF_FRAME>TEME</REF_FRAME><TIME_SYSTEM>UTC</TIME_SYSTEM><MEAN_ELEMENT_THEORY>SGP4</MEAN_ELEMENT_THEORY></metadata><data><meanElements><EPOCH>2025-10-18T21:55:33.482208</EPOCH><MEAN_MOTION>14.79941264</MEAN_MOTION><ECCENTRICITY>.00042157</ECCENTRICITY><INCLINATION>51.9009</INCLINATION><RA_OF_ASC_NODE>3.5445</RA_OF_ASC_NODE><ARG_OF_PERICENTER>3.8137</ARG_OF_PERICENTER><MEAN_ANOMALY>356.2857</MEAN_ANOMALY></meanElements><tleParameters><EPHEMERIS_TYPE>0</EPHEMERIS_TYPE><CLASSIFICATION_TYPE>U</CLASSIFICATION_TYPE><NORAD_CAT_ID>63744</NORAD_CAT_ID><ELEMENT_SET_NO>999</ELEMENT_SET_NO><REV_AT_EPOCH>2654</REV_AT_EPOCH><BSTAR>.18593705E-3</BSTAR><MEAN_MOTION_DOT>.1196E-4</MEAN_MOTION_DOT><MEAN_MOTION_DDOT>0</MEAN_MOTION_DDOT></tleParameters></data></segment></body></omm>
<omm id="CCSDS_OMM_VERS" version="2.0">
<header><CREATION_DATE/><ORIGINATOR/></header><body><segment><metadata><OBJECT_NAME>KUIPER-00032</OBJECT_NAME><OBJECT_ID>2025-088X</OBJECT_ID><CENTER_NAME>EARTH</CENTER_NAME><REF_FRAME>TEME</REF_FRAME><TIME_SYSTEM>UTC</TIME_SYSTEM><MEAN_ELEMENT_THEORY>SGP4</MEAN_ELEMENT_THEORY></metadata><data><meanElements><EPOCH>2025-10-19T02:53:39.440832</EPOCH><MEAN_MOTION>15.31409865</MEAN_MOTION><ECCENTRICITY>.00055466</ECCENTRICITY><INCLINATION>51.8732</INCLINATION><RA_OF_ASC_NODE>345.5187</RA_OF_ASC_NODE><ARG_OF_PERICENTER>348.9152</ARG_OF_PERICENTER><MEAN_ANOMALY>11.1709</MEAN_ANOMALY></meanElements><tleParameters><EPHEMERIS_TYPE>0</EPHEMERIS_TYPE><CLASSIFICATION_TYPE>U</CLASSIFICATION_TYPE><NORAD_CAT_ID>63745</NORAD_CAT_ID><ELEMENT_SET_NO>999</ELEMENT_SET_NO><REV_AT_EPOCH>2781</REV_AT_EPOCH><BSTAR>.75747508E-3</BSTAR><MEAN_MOTION_DOT>.23029E-3</MEAN_MOTION_DOT><MEAN_MOTION_DDOT>0</MEAN_MOTION_DDOT></tleParameters></data></segment></body></omm>
<omm id="CCSDS_OMM_VERS" version="2.0">
<header><CREATION_DATE/><ORIGINATOR/></header><body><segment><metadata><OBJECT_NAME>KUIPER-00033</OBJECT_NAME><OBJECT_ID>2025-088Y</OBJECT_ID><CENTER_NAME>EARTH</CENTER_NAME><REF_FRAME>TEME</REF_FRAME><TIME_SYSTEM>UTC</TIME_SYSTEM><MEAN_ELEMENT_THEORY>SGP4</MEAN_ELEMENT_THEORY></metadata><data><meanElements><EPOCH>2025-10-19T00:23:22.671168</EPOCH><MEAN_MOTION>14.79947508</MEAN_MOTION><ECCENTRICITY>.00044832</ECCENTRICITY><INCLINATION>51.9016</INCLINATION><RA_OF_ASC_NODE>33.0710</RA_OF_ASC_NODE><ARG_OF_PERICENTER>76.8025</ARG_OF_PERICENTER><MEAN_ANOMALY>283.3438</MEAN_ANOMALY></meanElements><tleParameters><EPHEMERIS_TYPE>0</EPHEMERIS_TYPE><CLASSIFICATION_TYPE>U</CLASSIFICATION_TYPE><NORAD_CAT_ID>63746</NORAD_CAT_ID><ELEMENT_SET_NO>999</ELEMENT_SET_NO><REV_AT_EPOCH>2662</REV_AT_EPOCH><BSTAR>.13511492E-2</BSTAR><MEAN_MOTION_DOT>.10099E-3</MEAN_MOTION_DOT><MEAN_MOTION_DDOT>0</MEAN_MOTION_DDOT></tleParameters></data></segment></body></omm>
<omm id="CCSDS_OMM_VERS" version="2.0">
<header><CREATION_DATE/><ORIGINATOR/></header><body><segment><metadata><OBJECT_NAME>KUIPER-00034</OBJECT_NAME><OBJECT_ID>2025-088Z</OBJECT_ID><CENTER_NAME>EARTH</CENTER_NAME><REF_FRAME>TEME</REF_FRAME><TIME_SYSTEM>UTC</TIME_SYSTEM><MEAN_ELEMENT_THEORY>SGP4</MEAN_ELEMENT_THEORY></metadata><data><meanElements><EPOCH>2025-10-18T21:36:48.211200</EPOCH><MEAN_MOTION>14.79932850</MEAN_MOTION><ECCENTRICITY>.00021522</ECCENTRICITY><INCLINATION>51.9032</INCLINATION><RA_OF_ASC_NODE>355.8778</RA_OF_ASC_NODE><ARG_OF_PERICENTER>0.8886</ARG_OF_PERICENTER><MEAN_ANOMALY>359.2080</MEAN_ANOMALY></meanElements><tleParameters><EPHEMERIS_TYPE>0</EPHEMERIS_TYPE><CLASSIFICATION_TYPE>U</CLASSIFICATION_TYPE><NORAD_CAT_ID>63747</NORAD_CAT_ID><ELEMENT_SET_NO>999</ELEMENT_SET_NO><REV_AT_EPOCH>2681</REV_AT_EPOCH><BSTAR>.10327994E-2</BSTAR><MEAN_MOTION_DOT>.7661E-4</MEAN_MOTION_DOT><MEAN_MOTION_DDOT>0</MEAN_MOTION_DDOT></tleParameters></data></segment></body></omm>

</ndm>
