KUIPER-00027            
1 63740U 25088S   25291.90011482  .00009059  00000+0  12283-2 0  9997
2 63740  51.9024   2.4070 0005131  56.3454 303.7997 14.79491333 26621
KUIPER-00028            
1 63741U 25088T   25291.91349157  .00004214  00000+0  59019-3 0  9999
2 63741  51.9016   0.2903 0004662  79.2840 280.8647 14.79298937 27066
KUIPER-00029            
1 63742U 25088U   25291.89348837  .00007349  00000+0  99056-3 0  9998
2 63742  51.9031 358.3650 0008819  26.8268 333.3148 14.79978582 26611
KUIPER-00030            
1 63743U 25088V   25291.96658319  .00008703  00000+0  11668-2 0  9993
2 63743  51.9021  17.2354 0014309 325.7506  34.2533 14.79963560 26648
KUIPER-00031            
1 63744U 25088W   25291.91358197  .00001196  00000+0  18594-3 0  9995
2 63744  51.9009   3.5445 0004215   3.8137 356.2857 14.79941264 26545
KUIPER-00032            
1 63745U 25088X   25292.12059538  .00023029  00000+0  75748-3 0  9990
2 63745  51.8732 345.5187 0005546 348.9152  11.1709 15.31409865 27817
KUIPER-00033            
1 63746U 25088Y   25292.01623462  .00010099  00000+0  13511-2 0  9994
2 63746  51.9016  33.0710 0004483  76.8025 283.3438 14.79947508 26622
KUIPER-00034            
1 63747U 25088Z   25291.90055800  .00007661  00000+0  10328-2 0  9991
2 63747  51.9032 355.8778 0002152   0.8886 359.2080 14.79932850 26814
